{
  "type": "FeatureCollection",
  "crs": {
    "type": "name",
    "properties": {
      "name": "EPSG:4326"
    }
  },
  "features": [
    {
      "type": "Feature",
      "properties": {
        "id": 0,
        "area_m2": 29.465,
        "source": "building-extraction-unet",
        "patch": "Image_237.tif"
      },
      "geometry": {
        "type": "Polygon",
        "coordinates": [
          [
            [
              13.412834981296196,
              52.39355087046527
            ],
            [
              13.412837184811586,
              52.393550900056184
            ],
            [
              13.412837200934794,
              52.39355045071103
            ],
            [
              13.412837935439915,
              52.39355046057466
            ],
            [
              13.412837951563116,
              52.39355001122951
            ],
            [
              13.412839420573349,
              52.39355003095674
            ],
            [
              13.412839436696531,
              52.39354958161159
            ],
            [
              13.412840171201642,
              52.39354959147521
            ],
            [
              13.41284013895529,
              52.3935504901655
            ],
            [
              13.41284160796554,
              52.39355050989271
            ],
            [
              13.412841591842378,
              52.393550959237864
            ],
            [
              13.41284232634751,
              52.393550969101454
            ],
            [
              13.412842342470665,
              52.3935505197563
            ],
            [
              13.412844545986045,
              52.39355054934708
            ],
            [
              13.412844562109179,
              52.393550100001924
            ],
            [
              13.412845296614298,
              52.393550109865494
            ],
            [
              13.412845280491172,
              52.393550559210645
            ],
            [
              13.412846014996301,
              52.39355056907423
            ],
            [
              13.412846031119418,
              52.39355011972907
            ],
            [
              13.41284676562454,
              52.39355012959264
            ],
            [
              13.412846781747648,
              52.39354968024749
            ],
            [
              13.412850454273222,
              52.39354972956527
            ],
            [
              13.412850470396293,
              52.39354928022013
            ],
            [
              13.41285340841673,
              52.393549319674264
            ],
            [
              13.412853424539769,
              52.39354887032911
            ],
            [
              13.41285562805508,
              52.39354889991968
            ],
            [
              13.412855644178098,
              52.39354845057453
            ],
            [
              13.412857113188291,
              52.393548470301546
            ],
            [
              13.412857129311295,
              52.39354802095637
            ],
            [
              13.412860067331659,
              52.393548060410346
            ],
            [
              13.41286008345463,
              52.393547611065195
            ],
            [
              13.4128615524648,
              52.39354763079216
            ],
            [
              13.412861568587758,
              52.39354718144701
            ],
            [
              13.41286450660807,
              52.39354722090087
            ],
            [
              13.412864522730997,
              52.39354677155572
            ],
            [
              13.412865991741143,
              52.39354679128263
            ],
            [
              13.412866007864054,
              52.39354634193747
            ],
            [
              13.412868945884316,
              52.393546381391225
            ],
            [
              13.412868962007199,
              52.39354593204605
            ],
            [
              13.412871165522379,
              52.39354596163633
            ],
            [
              13.412871181645237,
              52.393545512291176
            ],
            [
              13.412874119665453,
              52.3935455517448
            ],
            [
              13.412874135788282,
              52.39354510239964
            ],
            [
              13.412875604798376,
              52.39354512212643
            ],
            [
              13.41287562092119,
              52.393544672781275
            ],
            [
              13.412878558941356,
              52.393544712234785
            ],
            [
              13.41287857506414,
              52.393544262889634
            ],
            [
              13.412880778579249,
              52.393544292479724
            ],
            [
              13.412880794702007,
              52.39354384313455
            ],
            [
              13.412883732722127,
              52.39354388258794
            ],
            [
              13.412883748844857,
              52.39354343324278
            ],
            [
              13.412885217854903,
              52.39354345296945
            ],
            [
              13.412885233977617,
              52.393543003624295
            ],
            [
              13.412888906502706,
              52.39354305294088
            ],
            [
              13.412888922625383,
              52.393542603595705
            ],
            [
              13.412889657130394,
              52.39354261345902
            ],
            [
              13.412889673253064,
              52.39354216411386
            ],
            [
              13.412892611273083,
              52.39354220356702
            ],
            [
              13.412892627395722,
              52.39354175422185
            ],
            [
              13.41289409640572,
              52.3935417739484
            ],
            [
              13.412894112528342,
              52.39354132460325
            ],
            [
              13.412897785053307,
              52.39354137391955
            ],
            [
              13.412897801175893,
              52.393540924574395
            ],
            [
              13.412900004690854,
              52.393540954164116
            ],
            [
              13.412900020813415,
              52.39354050481896
            ],
            [
              13.412902958833342,
              52.393540544271865
            ],
            [
              13.412902974955875,
              52.393540094926706
            ],
            [
              13.412904443965825,
              52.393540114653135
            ],
            [
              13.412904460088342,
              52.39353966530796
            ],
            [
              13.412907398108217,
              52.39353970476074
            ],
            [
              13.412907414230705,
              52.39353925541558
            ],
            [
              13.412909617745594,
              52.39353928500513
            ],
            [
              13.412909633868058,
              52.39353883565998
            ],
            [
              13.412911837382927,
              52.393538865249475
            ],
            [
              13.412911853505369,
              52.39353841590432
            ],
            [
              13.412914057020219,
              52.39353844549378
            ],
            [
              13.412914073142638,
              52.393537996148616
            ],
            [
              13.412915542152527,
              52.393538015874896
            ],
            [
              13.41291555827493,
              52.39353756652973
            ],
            [
              13.412916292779867,
              52.39353757639286
            ],
            [
              13.412916308902263,
              52.3935371270477
            ],
            [
              13.412917777912124,
              52.39353714677396
            ],
            [
              13.412917794034504,
              52.39353669742879
            ],
            [
              13.412918528539427,
              52.39353670729192
            ],
            [
              13.4129185446618,
              52.39353625794674
            ],
            [
              13.412919279166717,
              52.393536267809864
            ],
            [
              13.41291929528908,
              52.393535818464706
            ],
            [
              13.412920029793991,
              52.39353582832781
            ],
            [
              13.412920062038703,
              52.39353492963748
            ],
            [
              13.412919327533809,
              52.39353491977436
            ],
            [
              13.412919359778535,
              52.39353402108404
            ],
            [
              13.412918625273655,
              52.393534011220915
            ],
            [
              13.41291872200787,
              52.39353131514992
            ],
            [
              13.412917987503034,
              52.39353130528681
            ],
            [
              13.412918019747783,
              52.393530406596454
            ],
            [
              13.412917285242964,
              52.393530396733325
            ],
            [
              13.412917414222003,
              52.393526801972
            ],
            [
              13.412916679717243,
              52.39352679210887
            ],
            [
              13.412916711962014,
              52.39352589341853
            ],
            [
              13.41291597745727,
              52.3935258835554
            ],
            [
              13.412916025824446,
              52.39352453551991
            ],
            [
              13.412915291319724,
              52.39352452565677
            ],
            [
              13.41291532356452,
              52.393523626966434
            ],
            [
              13.412914589059817,
              52.393523617103284
            ],
            [
              13.41291463742703,
              52.39352226906779
            ],
            [
              13.412913902922346,
              52.39352225920465
            ],
            [
              13.412913935167168,
              52.393521360514306
            ],
            [
              13.412913200662501,
              52.393521350651156
            ],
            [
              13.412913249029751,
              52.39352000261566
            ],
            [
              13.412912514525107,
              52.393519992752516
            ],
            [
              13.412912562892378,
              52.39351864471701
            ],
            [
              13.412911828387756,
              52.39351863485385
            ],
            [
              13.412911860632617,
              52.39351773616352
            ],
            [
              13.41291112612801,
              52.39351772630036
            ],
            [
              13.412911190617752,
              52.39351592891968
            ],
            [
              13.412910456113178,
              52.393515919056526
            ],
            [
              13.412910488358062,
              52.39351502036618
            ],
            [
              13.4129097538535,
              52.39351501050302
            ],
            [
              13.412909786098398,
              52.393514111812685
            ],
            [
              13.412909051593852,
              52.39351410194951
            ],
            [
              13.412909132206124,
              52.39351185522368
            ],
            [
              13.412908397701617,
              52.3935118453605
            ],
            [
              13.412908446069,
              52.393510497324996
            ],
            [
              13.412907711564515,
              52.3935104874618
            ],
            [
              13.41290777605438,
              52.39350869008116
            ],
            [
              13.412907041549925,
              52.39350868021798
            ],
            [
              13.412907073794871,
              52.393507781527624
            ],
            [
              13.41290633929043,
              52.393507771664446
            ],
            [
              13.412906403780346,
              52.39350597428378
            ],
            [
              13.412905669275936,
              52.39350596442058
            ],
            [
              13.412905701520906,
              52.393505065730245
            ],
            [
              13.412904967016512,
              52.39350505586705
            ],
            [
              13.412905015383988,
              52.39350370783155
            ],
            [
              13.412904280879616,
              52.39350369796835
            ],
            [
              13.412904313124612,
              52.39350279927802
            ],
            [
              13.412903578620256,
              52.39350278941481
            ],
            [
              13.412903610865264,
              52.39350189072449
            ],
            [
              13.412902876360922,
              52.39350188086127
            ],
            [
              13.412902892483434,
              52.39350143151611
            ],
            [
              13.412902157979103,
              52.393501421652886
            ],
            [
              13.412902206346656,
              52.393500073617396
            ],
            [
              13.412901471842344,
              52.393500063754175
            ],
            [
              13.412901504087394,
              52.39349916506384
            ],
            [
              13.4129007695831,
              52.39349915520061
            ],
            [
              13.41290080182816,
              52.39349825651029
            ],
            [
              13.412899332819604,
              52.39349823678382
            ],
            [
              13.41289934894215,
              52.39349778743866
            ],
            [
              13.412897879933608,
              52.39349776771219
            ],
            [
              13.412897896056167,
              52.39349731836702
            ],
            [
              13.412897161551903,
              52.393497308503775
            ],
            [
              13.412897177674472,
              52.393496859158596
            ],
            [
              13.412890567136197,
              52.39349677038919
            ],
            [
              13.412890551013563,
              52.393497219734364
            ],
            [
              13.412887612996533,
              52.39349718028117
            ],
            [
              13.412887596873869,
              52.39349762962634
            ],
            [
              13.412886127865342,
              52.39349760989971
            ],
            [
              13.412886111742663,
              52.39349805924486
            ],
            [
              13.412884642734122,
              52.39349803951823
            ],
            [
              13.412884626611428,
              52.39349848886339
            ],
            [
              13.412882423098598,
              52.39349845927339
            ],
            [
              13.41288240697588,
              52.39349890861855
            ],
            [
              13.412880937967314,
              52.39349888889186
            ],
            [
              13.41288092184458,
              52.393499338237035
            ],
            [
              13.412877983827423,
              52.39349929878361
            ],
            [
              13.412877967704663,
              52.39349974812875
            ],
            [
              13.412877233200366,
              52.3934997382654
            ],
            [
              13.412877217077593,
              52.393500187610556
            ],
            [
              13.412872810051786,
              52.39350012843024
            ],
            [
              13.412872793928969,
              52.39350057777539
            ],
            [
              13.412871324920355,
              52.393500558048586
            ],
            [
              13.412871308797524,
              52.393501007393745
            ],
            [
              13.41286837078027,
              52.39350096794007
            ],
            [
              13.412868354657409,
              52.393501417285236
            ],
            [
              13.41286688564877,
              52.393501397558374
            ],
            [
              13.412866869525892,
              52.39350184690353
            ],
            [
              13.412866135021565,
              52.39350183704009
            ],
            [
              13.412866151144451,
              52.39350138769493
            ],
            [
              13.412865416640132,
              52.393501377831484
            ],
            [
              13.41286540051724,
              52.39350182717666
            ],
            [
              13.41286393150859,
              52.39350180744975
            ],
            [
              13.412863915385682,
              52.3935022567949
            ],
            [
              13.412863180881349,
              52.39350224693144
            ],
            [
              13.412863164758436,
              52.393502696276606
            ],
            [
              13.412859492236743,
              52.39350264695925
            ],
            [
              13.41285947611379,
              52.39350309630441
            ],
            [
              13.412858741609444,
              52.393503086440916
            ],
            [
              13.412858725486485,
              52.393503535786074
            ],
            [
              13.41285505296473,
              52.393503486468596
            ],
            [
              13.412855036841732,
              52.39350393581374
            ],
            [
              13.412854302337374,
              52.39350392595023
            ],
            [
              13.412854286214369,
              52.39350437529538
            ],
            [
              13.412850613692553,
              52.39350432597775
            ],
            [
              13.41285059756951,
              52.3935047753229
            ],
            [
              13.41284986306514,
              52.39350476545937
            ],
            [
              13.41284984694209,
              52.39350521480453
            ],
            [
              13.412846174420212,
              52.39350516548674
            ],
            [
              13.412846158297121,
              52.39350561483192
            ],
            [
              13.41284542379274,
              52.39350560496834
            ],
            [
              13.412845407669643,
              52.39350605431349
            ],
            [
              13.412841735147703,
              52.39350600499558
            ],
            [
              13.412841719024568,
              52.393506454340745
            ],
            [
              13.412840250015782,
              52.39350643461354
            ],
            [
              13.41284023389263,
              52.393506883958686
            ],
            [
              13.412836561370632,
              52.39350683464062
            ],
            [
              13.412836545247444,
              52.39350728398577
            ],
            [
              13.412835076238633,
              52.39350726425851
            ],
            [
              13.412835060115428,
              52.39350771360367
            ],
            [
              13.41283065308896,
              52.39350765442178
            ],
            [
              13.412830636965712,
              52.39350810376693
            ],
            [
              13.412829902461294,
              52.39350809390326
            ],
            [
              13.412829886338038,
              52.3935085432484
            ],
            [
              13.412827682824764,
              52.39350851365738
            ],
            [
              13.412827666701487,
              52.39350896300253
            ],
            [
              13.412825463188195,
              52.393508933411475
            ],
            [
              13.412825447064893,
              52.39350938275662
            ],
            [
              13.41282397805602,
              52.39350936302921
            ],
            [
              13.412823961932702,
              52.393509812374376
            ],
            [
              13.412822492923814,
              52.39350979264696
            ],
            [
              13.412822476800484,
              52.3935102419921
            ],
            [
              13.412821007791583,
              52.393510222264666
            ],
            [
              13.412820991668235,
              52.39351067160982
            ],
            [
              13.412819522659325,
              52.39351065188236
            ],
            [
              13.41281950653596,
              52.393511101227496
            ],
            [
              13.41281656851811,
              52.393511061772536
            ],
            [
              13.412816552394718,
              52.39351151111767
            ],
            [
              13.412815817890248,
              52.39351150125394
            ],
            [
              13.412815801766845,
              52.39351195059909
            ],
            [
              13.412816536271324,
              52.39351196046284
            ],
            [
              13.412816520147928,
              52.39351240980799
            ],
            [
              13.412815785643444,
              52.393512399944235
            ],
            [
              13.41281567277962,
              52.39351554536026
            ],
            [
              13.412814203770548,
              52.39351552563273
            ],
            [
              13.412814187647129,
              52.39351597497788
            ],
            [
              13.412814922151673,
              52.393515984841635
            ],
            [
              13.412814841534603,
              52.39351823156737
            ],
            [
              13.412815576039183,
              52.393518241431124
            ],
            [
              13.412815543792368,
              52.39351914012143
            ],
            [
              13.412816278296964,
              52.39351914998518
            ],
            [
              13.412816294420365,
              52.39351870064004
            ],
            [
              13.412817763429542,
              52.39351872036754
            ],
            [
              13.412817698935996,
              52.393520517748115
            ],
            [
              13.412818433440615,
              52.393520527611855
            ],
            [
              13.412818385070475,
              52.393521875647295
            ],
            [
              13.412817650565831,
              52.39352186578355
            ],
            [
              13.412817634442444,
              52.3935223151287
            ],
            [
              13.412819103451744,
              52.39352233485617
            ],
            [
              13.412819071204993,
              52.39352323354648
            ],
            [
              13.412819805709658,
              52.393523243410215
            ],
            [
              13.412819741216186,
              52.39352504079079
            ],
            [
              13.412820475720881,
              52.39352505065451
            ],
            [
              13.412820443474157,
              52.39352594934482
            ],
            [
              13.412821177978868,
              52.393525959208546
            ],
            [
              13.412821097362086,
              52.393528205934274
            ],
            [
              13.412821831866836,
              52.393528215797986
            ],
            [
              13.412821783496783,
              52.393529563833425
            ],
            [
              13.412822518001557,
              52.39352957369714
            ],
            [
              13.412822453508177,
              52.39353137107773
            ],
            [
              13.412823188012979,
              52.39353138094145
            ],
            [
              13.412823123519624,
              52.39353317832203
            ],
            [
              13.412823858024455,
              52.39353318818574
            ],
            [
              13.41282382577779,
              52.39353408687603
            ],
            [
              13.412824560282639,
              52.39353409673974
            ],
            [
              13.412824528035985,
              52.39353499543004
            ],
            [
              13.41282526254085,
              52.39353500529374
            ],
            [
              13.41282523029421,
              52.39353590398404
            ],
            [
              13.412825964799088,
              52.39353591384772
            ],
            [
              13.412825948675776,
              52.39353636319287
            ],
            [
              13.41282521417089,
              52.393536353329175
            ],
            [
              13.41282519804757,
              52.39353680267433
            ],
            [
              13.412825932552462,
              52.393536812538024
            ],
            [
              13.41282588418252,
              52.39353816057346
            ],
            [
              13.412826618687436,
              52.393538170437154
            ],
            [
              13.412826570317513,
              52.3935395184726
            ],
            [
              13.412827304822452,
              52.39353952833629
            ],
            [
              13.41282727257585,
              52.39354042702658
            ],
            [
              13.412828007080803,
              52.39354043689026
            ],
            [
              13.412827942587622,
              52.39354223427085
            ],
            [
              13.412828677092607,
              52.39354224413454
            ],
            [
              13.412828660969318,
              52.39354269347968
            ],
            [
              13.412829395474311,
              52.39354270334336
            ],
            [
              13.41282933098118,
              52.39354450072394
            ],
            [
              13.412830065486203,
              52.393544510587624
            ],
            [
              13.412830049362928,
              52.39354495993276
            ],
            [
              13.412830783867957,
              52.39354496979644
            ],
            [
              13.41283071937488,
              52.39354676717702
            ],
            [
              13.412831453879939,
              52.39354677704068
            ],
            [
              13.412831437756674,
              52.39354722638584
            ],
            [
              13.412832172261744,
              52.39354723624949
            ],
            [
              13.412832123891974,
              52.393548584284936
            ],
            [
              13.412832858397065,
              52.39354859414859
            ],
            [
              13.412832842273815,
              52.39354904349374
            ],
            [
              13.412833576778914,
              52.39354905335739
            ],
            [
              13.41283356065567,
              52.393549502702534
            ],
            [
              13.412834295160776,
              52.39354951256619
            ],
            [
              13.412834279037542,
              52.39354996191133
            ],
            [
              13.412835013542656,
              52.39354997177498
            ],
            [
              13.412834981296196,
              52.39355087046527
            ]
          ]
        ]
      }
    },
    {
      "type": "Feature",
      "properties": {
        "id": 0,
        "area_m2": 13.435,
        "source": "building-extraction-unet",
        "patch": "Image_206.tif"
      },
      "geometry": {
        "type": "Polygon",
        "coordinates": [
          [
            [
              13.413217398466353,
              52.39352228818811
            ],
            [
              13.413217414585683,
              52.393521838842894
            ],
            [
              13.413218883595249,
              52.39352185856539
            ],
            [
              13.413218899714563,
              52.39352140922015
            ],
            [
              13.413221103228896,
              52.39352143880389
            ],
            [
              13.413221119348187,
              52.39352098945865
            ],
            [
              13.413224057367271,
              52.39352102890357
            ],
            [
              13.413224073486532,
              52.39352057955834
            ],
            [
              13.413226277000827,
              52.39352060914197
            ],
            [
              13.413226293120065,
              52.39352015979674
            ],
            [
              13.413227762129582,
              52.39352017951915
            ],
            [
              13.413227778248805,
              52.39351973017391
            ],
            [
              13.413230716267817,
              52.393519769618656
            ],
            [
              13.413230732387008,
              52.39351932027341
            ],
            [
              13.413232201396502,
              52.39351933999577
            ],
            [
              13.413232217515679,
              52.393518890650526
            ],
            [
              13.4132344210299,
              52.39351892023401
            ],
            [
              13.413234437149054,
              52.39351847088878
            ],
            [
              13.413236640663253,
              52.393518500472226
            ],
            [
              13.413236656782386,
              52.39351805112699
            ],
            [
              13.41323812579184,
              52.393518070849254
            ],
            [
              13.413238141910956,
              52.39351762150403
            ],
            [
              13.413239610920398,
              52.39351764122628
            ],
            [
              13.4132396270395,
              52.39351719188103
            ],
            [
              13.413241830553645,
              52.39351722146438
            ],
            [
              13.41324184667272,
              52.39351677211915
            ],
            [
              13.413242581177428,
              52.39351678198025
            ],
            [
              13.413242597296499,
              52.39351633263501
            ],
            [
              13.413244800810602,
              52.39351636221831
            ],
            [
              13.41324481692965,
              52.39351591287306
            ],
            [
              13.413245551434345,
              52.39351592273415
            ],
            [
              13.413245567553384,
              52.393515473388916
            ],
            [
              13.41324630205807,
              52.393515483250006
            ],
            [
              13.413246334296133,
              52.39351458455952
            ],
            [
              13.413247068800807,
              52.393514594420594
            ],
            [
              13.413247165514937,
              52.39351189834917
            ],
            [
              13.41324643101031,
              52.393511888488085
            ],
            [
              13.413246479367391,
              52.393510540452354
            ],
            [
              13.413245744862786,
              52.39351053059126
            ],
            [
              13.41324580933892,
              52.39350873321031
            ],
            [
              13.413245074834343,
              52.393508723349235
            ],
            [
              13.4132451393105,
              52.39350692596827
            ],
            [
              13.413244404805955,
              52.39350691610718
            ],
            [
              13.413244469282134,
              52.39350511872623
            ],
            [
              13.413243734777618,
              52.39350510886513
            ],
            [
              13.41324376701572,
              52.39350421017466
            ],
            [
              13.413243032511222,
              52.39350420031355
            ],
            [
              13.413243080868392,
              52.39350285227783
            ],
            [
              13.413242346363917,
              52.39350284241672
            ],
            [
              13.413242394721108,
              52.393501494381
            ],
            [
              13.413241660216654,
              52.393501484519895
            ],
            [
              13.413241708573864,
              52.393500136484185
            ],
            [
              13.41324097406943,
              52.393500126623074
            ],
            [
              13.413241006307583,
              52.393499227932594
            ],
            [
              13.413240271803168,
              52.39349921807147
            ],
            [
              13.413240304041333,
              52.393498319380996
            ],
            [
              13.413239569536932,
              52.393498309519885
            ],
            [
              13.4132396178942,
              52.393496961484146
            ],
            [
              13.413238883389822,
              52.393496951623035
            ],
            [
              13.413238931747108,
              52.393495603587326
            ],
            [
              13.413238197242753,
              52.3934955937262
            ],
            [
              13.413238229480957,
              52.39349469503571
            ],
            [
              13.413237494976618,
              52.39349468517458
            ],
            [
              13.413237559453048,
              52.393492887793634
            ],
            [
              13.41323682494874,
              52.3934928779325
            ],
            [
              13.413236873306081,
              52.39349152989677
            ],
            [
              13.413236138801794,
              52.393491520035646
            ],
            [
              13.413236187159153,
              52.393490171999915
            ],
            [
              13.413235452654892,
              52.39349016213876
            ],
            [
              13.413235501012268,
              52.39348881410306
            ],
            [
              13.413234766508028,
              52.393488804241905
            ],
            [
              13.413234830984557,
              52.39348700686095
            ],
            [
              13.413234096480346,
              52.3934869969998
            ],
            [
              13.413234112599485,
              52.39348654765457
            ],
            [
              13.413233378095281,
              52.3934865377934
            ],
            [
              13.413233426452717,
              52.39348518975768
            ],
            [
              13.413232691948537,
              52.39348517989653
            ],
            [
              13.413232708067689,
              52.39348473055129
            ],
            [
              13.413231973563516,
              52.39348472069012
            ],
            [
              13.41323203804015,
              52.393482923309165
            ],
            [
              13.413231303536007,
              52.393482913448004
            ],
            [
              13.413231319655173,
              52.39348246410276
            ],
            [
              13.413230585151037,
              52.39348245424159
            ],
            [
              13.413230633508551,
              52.393481106205876
            ],
            [
              13.413229899004438,
              52.3934810963447
            ],
            [
              13.413229915123617,
              52.39348064699946
            ],
            [
              13.413229180619513,
              52.393480637138275
            ],
            [
              13.41322924509625,
              52.393478839757314
            ],
            [
              13.413228510592177,
              52.39347882989613
            ],
            [
              13.413228526711368,
              52.393478380550896
            ],
            [
              13.413227792207303,
              52.393478370689714
            ],
            [
              13.413227824445697,
              52.39347747199924
            ],
            [
              13.413227089941646,
              52.39347746213805
            ],
            [
              13.413227122180055,
              52.39347656344756
            ],
            [
              13.413226387676021,
              52.39347655358637
            ],
            [
              13.41322640379523,
              52.39347610424113
            ],
            [
              13.413225669291204,
              52.39347609437993
            ],
            [
              13.413225701529639,
              52.393475195689454
            ],
            [
              13.413224967025627,
              52.39347518582826
            ],
            [
              13.413224999264077,
              52.39347428713777
            ],
            [
              13.41322426476008,
              52.39347427727655
            ],
            [
              13.413224280879312,
              52.39347382793131
            ],
            [
              13.413222811871334,
              52.393473808208874
            ],
            [
              13.41322282799058,
              52.393473358863645
            ],
            [
              13.413222093486599,
              52.39347334900242
            ],
            [
              13.413222109605853,
              52.39347289965718
            ],
            [
              13.41322137510188,
              52.393472889795966
            ],
            [
              13.413221391221139,
              52.39347244045073
            ],
            [
              13.413216249693399,
              52.39347237142201
            ],
            [
              13.413216233574087,
              52.39347282076725
            ],
            [
              13.413211092046314,
              52.393472751738294
            ],
            [
              13.413211075926949,
              52.39347320108353
            ],
            [
              13.413209606919002,
              52.39347318136093
            ],
            [
              13.413209590799624,
              52.39347363070617
            ],
            [
              13.413206652783705,
              52.39347359126091
            ],
            [
              13.413206636664295,
              52.39347404060615
            ],
            [
              13.413205167656326,
              52.39347402088349
            ],
            [
              13.413205151536898,
              52.39347447022874
            ],
            [
              13.413201479016942,
              52.393474420922026
            ],
            [
              13.41320146289748,
              52.39347487026726
            ],
            [
              13.413200728393482,
              52.393474860405895
            ],
            [
              13.41320071227401,
              52.39347530975113
            ],
            [
              13.413199243266002,
              52.393475290028405
            ],
            [
              13.413199227146515,
              52.393475739373635
            ],
            [
              13.413197758138493,
              52.393475719650894
            ],
            [
              13.413197742018992,
              52.393476168996116
            ],
            [
              13.413196273010957,
              52.39347614927336
            ],
            [
              13.41319625689144,
              52.39347659861859
            ],
            [
              13.413195522387415,
              52.39347658875721
            ],
            [
              13.41319550626789,
              52.39347703810243
            ],
            [
              13.413194037259828,
              52.39347701837964
            ],
            [
              13.413194021140287,
              52.39347746772487
            ],
            [
              13.41319328663625,
              52.39347745786347
            ],
            [
              13.413193254397154,
              52.39347835655392
            ],
            [
              13.413192519893101,
              52.39347834669252
            ],
            [
              13.413192342577958,
              52.39348328949007
            ],
            [
              13.413193077082092,
              52.39348329935147
            ],
            [
              13.413193012603877,
              52.39348509673239
            ],
            [
              13.413193747108041,
              52.39348510659379
            ],
            [
              13.413193698749396,
              52.393486454629496
            ],
            [
              13.413194433253585,
              52.3934864644909
            ],
            [
              13.413194384894958,
              52.393487812526594
            ],
            [
              13.413195119399168,
              52.39348782238799
            ],
            [
              13.413195071040562,
              52.39348917042367
            ],
            [
              13.413195805544794,
              52.39348918028507
            ],
            [
              13.413195757186205,
              52.39349052832076
            ],
            [
              13.413196491690462,
              52.39349053818215
            ],
            [
              13.413196427212368,
              52.39349233556308
            ],
            [
              13.413197161716653,
              52.39349234542447
            ],
            [
              13.41319709723858,
              52.39349414280538
            ],
            [
              13.413197831742899,
              52.39349415266676
            ],
            [
              13.413197799503875,
              52.393495051357235
            ],
            [
              13.413198534008206,
              52.39349506121861
            ],
            [
              13.413198469530185,
              52.39349685859954
            ],
            [
              13.413199204034546,
              52.39349686846091
            ],
            [
              13.413199171795549,
              52.393497767151366
            ],
            [
              13.413199906299925,
              52.393497777012726
            ],
            [
              13.413199841821953,
              52.39349957439366
            ],
            [
              13.41320057632636,
              52.39349958425503
            ],
            [
              13.413200544087386,
              52.39350048294548
            ],
            [
              13.41320127859181,
              52.39350049280685
            ],
            [
              13.413201230233367,
              52.39350184084254
            ],
            [
              13.413201964737814,
              52.39350185070389
            ],
            [
              13.41320191637939,
              52.39350319873959
            ],
            [
              13.413202650883859,
              52.39350320860093
            ],
            [
              13.413202586405985,
              52.393505005981865
            ],
            [
              13.413203320910483,
              52.3935050158432
            ],
            [
              13.413203272552096,
              52.393506363878906
            ],
            [
              13.413204007056617,
              52.39350637374025
            ],
            [
              13.413203958698249,
              52.39350772177594
            ],
            [
              13.413204693202793,
              52.39350773163728
            ],
            [
              13.41320462872499,
              52.3935095290182
            ],
            [
              13.413205363229565,
              52.393509538879556
            ],
            [
              13.413205330990676,
              52.393510437570015
            ],
            [
              13.413206065495267,
              52.393510447431346
            ],
            [
              13.413206033256392,
              52.39351134612181
            ],
            [
              13.413206767760997,
              52.39351135598314
            ],
            [
              13.413206735522134,
              52.39351225467359
            ],
            [
              13.413207470026755,
              52.39351226453492
            ],
            [
              13.413207453907331,
              52.393512713880156
            ],
            [
              13.413206719402703,
              52.39351270401883
            ],
            [
              13.41320670328327,
              52.39351315336406
            ],
            [
              13.413207437787905,
              52.39351316322539
            ],
            [
              13.413207405549056,
              52.39351406191584
            ],
            [
              13.413208140053706,
              52.39351407177717
            ],
            [
              13.413208075576032,
              52.393515869158094
            ],
            [
              13.413208810080713,
              52.393515879019404
            ],
            [
              13.41320874560306,
              52.393517676400336
            ],
            [
              13.41320948010777,
              52.393517686261646
            ],
            [
              13.413209431749548,
              52.39351903429733
            ],
            [
              13.413210166254283,
              52.393519044158644
            ],
            [
              13.413210117896078,
              52.39352039219435
            ],
            [
              13.413211586905595,
              52.39352041191694
            ],
            [
              13.413211570786206,
              52.393520861262175
            ],
            [
              13.413210836281442,
              52.39352085140088
            ],
            [
              13.413210820162046,
              52.3935213007461
            ],
            [
              13.413212289171591,
              52.3935213204687
            ],
            [
              13.41321227305221,
              52.393521769813944
            ],
            [
              13.413214476566553,
              52.3935217993978
            ],
            [
              13.413214460447195,
              52.393522248743025
            ],
            [
              13.413217398466353,
              52.39352228818811
            ]
          ]
        ]
      }
    },
    {
      "type": "Feature",
      "properties": {
        "id": 1,
        "area_m2": 7.508,
        "source": "building-extraction-unet",
        "patch": "Image_206.tif"
      },
      "geometry": {
        "type": "Polygon",
        "coordinates": [
          [
            [
              13.41324229320732,
              52.393565780333304
            ],
            [
              13.41324230932642,
              52.39356533098807
            ],
            [
              13.413243043831937,
              52.39356534084918
            ],
            [
              13.413243059951029,
              52.39356489150395
            ],
            [
              13.413245263467552,
              52.39356492108724
            ],
            [
              13.413245279586624,
              52.393564471741996
            ],
            [
              13.413246748597626,
              52.39356449146418
            ],
            [
              13.41324676471668,
              52.39356404211895
            ],
            [
              13.41324823372767,
              52.39356406184111
            ],
            [
              13.41324824984671,
              52.39356361249587
            ],
            [
              13.413251187868665,
              52.393563651940134
            ],
            [
              13.413251203987674,
              52.3935632025949
            ],
            [
              13.413254142009604,
              52.39356324203909
            ],
            [
              13.413254158128584,
              52.39356279269386
            ],
            [
              13.413256361645013,
              52.393562822276955
            ],
            [
              13.41325637776397,
              52.393562372931704
            ],
            [
              13.413258581280385,
              52.39356240251475
            ],
            [
              13.413258597399318,
              52.39356195316952
            ],
            [
              13.413259331904781,
              52.39356196303053
            ],
            [
              13.413259348023706,
              52.39356151368529
            ],
            [
              13.413261551540078,
              52.39356154326829
            ],
            [
              13.413261567658981,
              52.39356109392305
            ],
            [
              13.413263036669886,
              52.39356111364502
            ],
            [
              13.413263052788771,
              52.39356066429978
            ],
            [
              13.413263787294216,
              52.39356067416076
            ],
            [
              13.413263803413095,
              52.393560224815516
            ],
            [
              13.41326527242397,
              52.39356024453746
            ],
            [
              13.413265288542837,
              52.39355979519223
            ],
            [
              13.413266757553698,
              52.39355981491414
            ],
            [
              13.413266773672545,
              52.39355936556892
            ],
            [
              13.41326750817797,
              52.39355937542987
            ],
            [
              13.413267524296812,
              52.39355892608463
            ],
            [
              13.413268258802228,
              52.39355893594558
            ],
            [
              13.413268403871713,
              52.39355489183841
            ],
            [
              13.413267669366363,
              52.39355488197746
            ],
            [
              13.413267749960546,
              52.39355263525124
            ],
            [
              13.413267015455233,
              52.39355262539029
            ],
            [
              13.41326706381176,
              52.39355127735456
            ],
            [
              13.41326632930647,
              52.39355126749361
            ],
            [
              13.413266393781862,
              52.393549470112646
            ],
            [
              13.413265659276604,
              52.39354946025168
            ],
            [
              13.413265707633165,
              52.39354811221596
            ],
            [
              13.413264973127928,
              52.393548102355
            ],
            [
              13.413265037603368,
              52.393546304974016
            ],
            [
              13.413264303098162,
              52.393546295113055
            ],
            [
              13.413264335335894,
              52.393545396422574
            ],
            [
              13.413263600830703,
              52.393545386561605
            ],
            [
              13.413263665306193,
              52.39354358918064
            ],
            [
              13.413262930801032,
              52.393543579319655
            ],
            [
              13.413262946919911,
              52.39354312997441
            ],
            [
              13.413262212414757,
              52.39354312011343
            ],
            [
              13.413262276890299,
              52.39354132273246
            ],
            [
              13.413261542385175,
              52.39354131287148
            ],
            [
              13.413261590741849,
              52.39353996483574
            ],
            [
              13.413260856236748,
              52.393539954974756
            ],
            [
              13.413260888474545,
              52.393539056284276
            ],
            [
              13.413260153969459,
              52.393539046423285
            ],
            [
              13.413260186207268,
              52.393538147732805
            ],
            [
              13.4132594517022,
              52.39353813787179
            ],
            [
              13.41325946782111,
              52.393537688526564
            ],
            [
              13.413257998810987,
              52.39353766880455
            ],
            [
              13.413258014929914,
              52.39353721945931
            ],
            [
              13.413256545919808,
              52.393537199737274
            ],
            [
              13.413256562038747,
              52.39353675039205
            ],
            [
              13.41325288951353,
              52.39353670108688
            ],
            [
              13.413252905632506,
              52.39353625174164
            ],
            [
              13.413252171127471,
              52.3935362418806
            ],
            [
              13.413252155008488,
              52.39353669122583
            ],
            [
              13.413249951493363,
              52.39353666164268
            ],
            [
              13.413249935374356,
              52.3935371109879
            ],
            [
              13.41324626284912,
              52.393537061682544
            ],
            [
              13.413246246730075,
              52.39353751102779
            ],
            [
              13.413244777719969,
              52.39353749130561
            ],
            [
              13.413244761600907,
              52.39353794065086
            ],
            [
              13.413242558085729,
              52.393537911067554
            ],
            [
              13.413242541966646,
              52.39353836041279
            ],
            [
              13.41324033845145,
              52.39353833082944
            ],
            [
              13.413240322332344,
              52.39353878017468
            ],
            [
              13.41323958782727,
              52.393538770313555
            ],
            [
              13.413239571708157,
              52.39353921965879
            ],
            [
              13.41323736819292,
              52.39353919007539
            ],
            [
              13.413237352073786,
              52.393539639420624
            ],
            [
              13.41323514855853,
              52.393539609837184
            ],
            [
              13.41323513243937,
              52.393540059182435
            ],
            [
              13.413234397934279,
              52.39354004932127
            ],
            [
              13.413234381815112,
              52.3935404986665
            ],
            [
              13.413232912804915,
              52.39354047894418
            ],
            [
              13.413232896685734,
              52.39354092828942
            ],
            [
              13.413232162180627,
              52.39354091842825
            ],
            [
              13.413232146061437,
              52.39354136777349
            ],
            [
              13.413229942546101,
              52.39354133818994
            ],
            [
              13.413229926426888,
              52.39354178753518
            ],
            [
              13.413228457416652,
              52.3935417678128
            ],
            [
              13.413228441297422,
              52.39354221715803
            ],
            [
              13.413226972287173,
              52.393542197435636
            ],
            [
              13.41322695616793,
              52.393542646780865
            ],
            [
              13.413226221662798,
              52.393542636919655
            ],
            [
              13.413226205543548,
              52.39354308626489
            ],
            [
              13.41322473653327,
              52.393543066542456
            ],
            [
              13.413224704294734,
              52.393543965232936
            ],
            [
              13.413223969789582,
              52.39354395537171
            ],
            [
              13.413223953670306,
              52.393544404716955
            ],
            [
              13.413223219165147,
              52.393544394855724
            ],
            [
              13.413223203045865,
              52.39354484420096
            ],
            [
              13.413222468540697,
              52.39354483433972
            ],
            [
              13.413222371824947,
              52.39354753041111
            ],
            [
              13.41322310633016,
              52.393547540272344
            ],
            [
              13.413223041853012,
              52.393549337653276
            ],
            [
              13.413223776358253,
              52.3935493475145
            ],
            [
              13.413223728000414,
              52.393550695550196
            ],
            [
              13.413224462505678,
              52.39355070541141
            ],
            [
              13.413224414147855,
              52.39355205344712
            ],
            [
              13.413225148653142,
              52.39355206330834
            ],
            [
              13.413225019698988,
              52.3935556580702
            ],
            [
              13.413225754204337,
              52.393555667931416
            ],
            [
              13.413225721965809,
              52.393556566621875
            ],
            [
              13.413227190976535,
              52.39355658634429
            ],
            [
              13.413227158738035,
              52.393557485034755
            ],
            [
              13.413227893243414,
              52.39355749489596
            ],
            [
              13.41322782876644,
              52.39355929227689
            ],
            [
              13.413228563271849,
              52.39355930213809
            ],
            [
              13.413228531033372,
              52.39356020082856
            ],
            [
              13.413229265538797,
              52.39356021068976
            ],
            [
              13.413229233300337,
              52.393561109380215
            ],
            [
              13.413229967805774,
              52.39356111924141
            ],
            [
              13.413229935567326,
              52.39356201793186
            ],
            [
              13.413230670072782,
              52.39356202779306
            ],
            [
              13.413230637834346,
              52.39356292648353
            ],
            [
              13.413231372339816,
              52.393562936344715
            ],
            [
              13.413231323982181,
              52.393564284380396
            ],
            [
              13.413232058487678,
              52.39356429424157
            ],
            [
              13.413232042368472,
              52.39356474358682
            ],
            [
              13.413232776873972,
              52.393564753448
            ],
            [
              13.413232744635577,
              52.39356565213846
            ],
            [
              13.41324229320732,
              52.393565780333304
            ]
          ]
        ]
      }
    }
  ]
}
